[{"OBJECT_NAME":"STARLINK-5101","OBJECT_ID":"2022-177C","EPOCH":"2026-03-09T13:11:46.746240","MEAN_MOTION":15.02701513,"ECCENTRICITY":8.39e-5,"INCLINATION":43.0022,"RA_OF_ASC_NODE":134.1477,"ARG_OF_PERICENTER":218.1552,"MEAN_ANOMALY":141.9231,"EPHEMERIS_TYPE":0,"CLASSIFICATION_TYPE":"U","NORAD_CAT_ID":54822,"ELEMENT_SET_NO":999,"REV_AT_EPOCH":17693,"BSTAR":0.0014935,"MEAN_MOTION_DOT":0.00020117,"MEAN_MOTION_DDOT":0},{"OBJECT_NAME":"CZ-6A DEB","OBJECT_ID":"2024-140RH","EPOCH":"2026-03-09T12:32:13.567200","MEAN_MOTION":15.23024459,"ECCENTRICITY":0.01073082,"INCLINATION":88.6757,"RA_OF_ASC_NODE":253.1302,"ARG_OF_PERICENTER":74.0491,"MEAN_ANOMALY":287.2547,"EPHEMERIS_TYPE":0,"CLASSIFICATION_TYPE":"U","NORAD_CAT_ID":61163,"ELEMENT_SET_NO":999,"REV_AT_EPOCH":8457,"BSTAR":0.0019108924,"MEAN_MOTION_DOT":0.00053105,"MEAN_MOTION_DDOT":0}]
